[{"OBJECT_NAME":"PHISAT 2","OBJECT_ID":"2024-149C","EPOCH":"2026-03-09T18:55:12.732384","MEAN_MOTION":15.29548632,"ECCENTRICITY":0.00011753,"INCLINATION":97.3806,"RA_OF_ASC_NODE":148.6498,"ARG_OF_PERICENTER":168.623,"MEAN_ANOMALY":191.5037,"EPHEMERIS_TYPE":0,"CLASSIFICATION_TYPE":"U","NORAD_CAT_ID":60470,"ELEMENT_SET_NO":999,"REV_AT_EPOCH":8679,"BSTAR":0.00031420974,"MEAN_MOTION_DOT":8.925e-5,"MEAN_MOTION_DDOT":0},{"OBJECT_NAME":"STARLINK-33857","OBJECT_ID":"2025-113AB","EPOCH":"2026-03-09T19:03:26.282880","MEAN_MOTION":15.30220343,"ECCENTRICITY":0.00019382,"INCLINATION":53.1599,"RA_OF_ASC_NODE":90.4571,"ARG_OF_PERICENTER":107.8257,"MEAN_ANOMALY":252.2955,"EPHEMERIS_TYPE":0,"CLASSIFICATION_TYPE":"U","NORAD_CAT_ID":64195,"ELEMENT_SET_NO":999,"REV_AT_EPOCH":4504,"BSTAR":0.00083378978,"MEAN_MOTION_DOT":0.00024432,"MEAN_MOTION_DDOT":0}]
